<?xml version="1.0" encoding="UTF-8"?>
<gpx version="1.1" creator="iron-frank-fietsparcours" xmlns="http://www.topografix.com/GPX/1/1">
  <metadata><name>IRON FRANK fietsparcours — volledige route (90 km, 3 rondes)</name></metadata>
  <trk><name>IRON FRANK fietsparcours (volledig)</name><trkseg>
      <trkpt lat="51.222297" lon="5.118930"><ele>20.276380</ele></trkpt>
      <trkpt lat="51.222826" lon="5.121850"><ele>19.922523</ele></trkpt>
      <trkpt lat="51.223671" lon="5.126571"><ele>21.481129</ele></trkpt>
      <trkpt lat="51.224174" lon="5.129373"><ele>21.801386</ele></trkpt>
      <trkpt lat="51.225444" lon="5.136491"><ele>22.804068</ele></trkpt>
      <trkpt lat="51.225590" lon="5.137320"><ele>23.619991</ele></trkpt>
      <trkpt lat="51.225546" lon="5.137341"><ele>23.701869</ele></trkpt>
      <trkpt lat="51.225517" lon="5.137396"><ele>23.724764</ele></trkpt>
      <trkpt lat="51.225513" lon="5.137482"><ele>23.746036</ele></trkpt>
      <trkpt lat="51.225547" lon="5.137557"><ele>23.768874</ele></trkpt>
      <trkpt lat="51.225620" lon="5.137567"><ele>23.794631</ele></trkpt>
      <trkpt lat="51.225668" lon="5.137479"><ele>23.693087</ele></trkpt>
      <trkpt lat="51.225653" lon="5.137369"><ele>23.595129</ele></trkpt>
      <trkpt lat="51.225590" lon="5.137320"><ele>23.497763</ele></trkpt>
      <trkpt lat="51.225444" lon="5.136491"><ele>22.804489</ele></trkpt>
      <trkpt lat="51.224174" lon="5.129373"><ele>21.800906</ele></trkpt>
      <trkpt lat="51.223671" lon="5.126571"><ele>21.486056</ele></trkpt>
      <trkpt lat="51.222826" lon="5.121850"><ele>19.935344</ele></trkpt>
      <trkpt lat="51.222034" lon="5.117479"><ele>20.897896</ele></trkpt>
      <trkpt lat="51.221647" lon="5.115297"><ele>25.235931</ele></trkpt>
      <trkpt lat="51.221635" lon="5.115083"><ele>25.192774</ele></trkpt>
      <trkpt lat="51.222133" lon="5.115082"><ele>24.321738</ele></trkpt>
      <trkpt lat="51.222249" lon="5.115084"><ele>24.159824</ele></trkpt>
      <trkpt lat="51.222996" lon="5.115109"><ele>24.049717</ele></trkpt>
      <trkpt lat="51.224886" lon="5.115215"><ele>24.720464</ele></trkpt>
      <trkpt lat="51.225841" lon="5.115267"><ele>23.472227</ele></trkpt>
      <trkpt lat="51.226320" lon="5.115278"><ele>23.687929</ele></trkpt>
      <trkpt lat="51.226317" lon="5.115418"><ele>23.710905</ele></trkpt>
      <trkpt lat="51.225902" lon="5.115583"><ele>23.447239</ele></trkpt>
      <trkpt lat="51.225664" lon="5.115668"><ele>23.156277</ele></trkpt>
      <trkpt lat="51.225661" lon="5.115925"><ele>23.004945</ele></trkpt>
      <trkpt lat="51.225914" lon="5.117302"><ele>22.527956</ele></trkpt>
      <trkpt lat="51.226100" lon="5.117740"><ele>22.526954</ele></trkpt>
      <trkpt lat="51.226247" lon="5.118523"><ele>22.790539</ele></trkpt>
      <trkpt lat="51.226425" lon="5.119550"><ele>22.991136</ele></trkpt>
      <trkpt lat="51.226428" lon="5.119999"><ele>22.993416</ele></trkpt>
      <trkpt lat="51.227234" lon="5.124534"><ele>22.699525</ele></trkpt>
      <trkpt lat="51.228256" lon="5.130277"><ele>22.301143</ele></trkpt>
      <trkpt lat="51.228647" lon="5.132463"><ele>22.205138</ele></trkpt>
      <trkpt lat="51.228868" lon="5.133698"><ele>22.221299</ele></trkpt>
      <trkpt lat="51.228949" lon="5.133912"><ele>22.320283</ele></trkpt>
      <trkpt lat="51.228969" lon="5.134018"><ele>22.367741</ele></trkpt>
      <trkpt lat="51.229703" lon="5.138001"><ele>22.872354</ele></trkpt>
      <trkpt lat="51.229798" lon="5.138512"><ele>22.866553</ele></trkpt>
      <trkpt lat="51.229797" lon="5.139388"><ele>23.944214</ele></trkpt>
      <trkpt lat="51.229843" lon="5.139780"><ele>24.598146</ele></trkpt>
      <trkpt lat="51.229973" lon="5.140440"><ele>25.530477</ele></trkpt>
      <trkpt lat="51.230176" lon="5.140882"><ele>25.117005</ele></trkpt>
      <trkpt lat="51.230644" lon="5.143431"><ele>22.804138</ele></trkpt>
      <trkpt lat="51.231049" lon="5.145726"><ele>22.426443</ele></trkpt>
      <trkpt lat="51.231977" lon="5.150883"><ele>24.493325</ele></trkpt>
      <trkpt lat="51.233915" lon="5.161568"><ele>27.316614</ele></trkpt>
      <trkpt lat="51.233890" lon="5.162082"><ele>27.549360</ele></trkpt>
      <trkpt lat="51.233969" lon="5.162579"><ele>27.599999</ele></trkpt>
      <trkpt lat="51.233869" lon="5.162613"><ele>27.599999</ele></trkpt>
      <trkpt lat="51.233786" lon="5.162650"><ele>27.599999</ele></trkpt>
      <trkpt lat="51.233724" lon="5.162676"><ele>27.599999</ele></trkpt>
      <trkpt lat="51.233786" lon="5.162650"><ele>27.729645</ele></trkpt>
      <trkpt lat="51.233724" lon="5.162676"><ele>27.729645</ele></trkpt>
      <trkpt lat="51.233838" lon="5.163276"><ele>27.957174</ele></trkpt>
      <trkpt lat="51.233860" lon="5.163483"><ele>27.987160</ele></trkpt>
      <trkpt lat="51.233844" lon="5.163639"><ele>27.938774</ele></trkpt>
      <trkpt lat="51.233668" lon="5.164148"><ele>27.603949</ele></trkpt>
      <trkpt lat="51.233608" lon="5.164291"><ele>27.490793</ele></trkpt>
      <trkpt lat="51.233544" lon="5.164356"><ele>27.411167</ele></trkpt>
      <trkpt lat="51.233434" lon="5.164401"><ele>27.276021</ele></trkpt>
      <trkpt lat="51.232886" lon="5.164270"><ele>26.612975</ele></trkpt>
      <trkpt lat="51.232653" lon="5.164214"><ele>26.384008</ele></trkpt>
      <trkpt lat="51.232609" lon="5.164145"><ele>26.322931</ele></trkpt>
      <trkpt lat="51.232451" lon="5.164122"><ele>26.165790</ele></trkpt>
      <trkpt lat="51.232408" lon="5.164163"><ele>26.094900</ele></trkpt>
      <trkpt lat="51.231935" lon="5.164053"><ele>25.520020</ele></trkpt>
      <trkpt lat="51.226801" lon="5.162919"><ele>25.801528</ele></trkpt>
      <trkpt lat="51.223667" lon="5.162227"><ele>25.966496</ele></trkpt>
      <trkpt lat="51.222569" lon="5.161984"><ele>24.604935</ele></trkpt>
      <trkpt lat="51.221801" lon="5.161815"><ele>23.679186</ele></trkpt>
      <trkpt lat="51.221341" lon="5.161678"><ele>23.902906</ele></trkpt>
      <trkpt lat="51.221066" lon="5.161645"><ele>24.037582</ele></trkpt>
      <trkpt lat="51.219136" lon="5.161221"><ele>23.043413</ele></trkpt>
      <trkpt lat="51.218590" lon="5.161093"><ele>24.364346</ele></trkpt>
      <trkpt lat="51.218452" lon="5.161095"><ele>24.665593</ele></trkpt>
      <trkpt lat="51.218252" lon="5.161234"><ele>24.890924</ele></trkpt>
      <trkpt lat="51.218179" lon="5.161216"><ele>24.879077</ele></trkpt>
      <trkpt lat="51.217823" lon="5.161129"><ele>24.550212</ele></trkpt>
      <trkpt lat="51.217674" lon="5.160911"><ele>24.503189</ele></trkpt>
      <trkpt lat="51.217403" lon="5.160849"><ele>24.495198</ele></trkpt>
      <trkpt lat="51.213652" lon="5.159979"><ele>24.027774</ele></trkpt>
      <trkpt lat="51.211933" lon="5.159597"><ele>24.803286</ele></trkpt>
      <trkpt lat="51.207708" lon="5.158659"><ele>26.975000</ele></trkpt>
      <trkpt lat="51.207227" lon="5.158564"><ele>27.546992</ele></trkpt>
      <trkpt lat="51.205753" lon="5.158227"><ele>28.225352</ele></trkpt>
      <trkpt lat="51.205695" lon="5.158216"><ele>28.172871</ele></trkpt>
      <trkpt lat="51.205229" lon="5.158103"><ele>27.937158</ele></trkpt>
      <trkpt lat="51.205171" lon="5.158089"><ele>27.968028</ele></trkpt>
      <trkpt lat="51.205093" lon="5.157955"><ele>28.271431</ele></trkpt>
      <trkpt lat="51.205021" lon="5.157445"><ele>29.292176</ele></trkpt>
      <trkpt lat="51.204743" lon="5.156845"><ele>29.768377</ele></trkpt>
      <trkpt lat="51.204546" lon="5.156237"><ele>29.832684</ele></trkpt>
      <trkpt lat="51.204539" lon="5.156056"><ele>29.816582</ele></trkpt>
      <trkpt lat="51.204465" lon="5.155926"><ele>29.777838</ele></trkpt>
      <trkpt lat="51.204038" lon="5.154374"><ele>28.968836</ele></trkpt>
      <trkpt lat="51.203944" lon="5.153980"><ele>29.025469</ele></trkpt>
      <trkpt lat="51.203918" lon="5.153620"><ele>29.205918</ele></trkpt>
      <trkpt lat="51.203952" lon="5.152975"><ele>29.559908</ele></trkpt>
      <trkpt lat="51.204012" lon="5.152398"><ele>29.692525</ele></trkpt>
      <trkpt lat="51.204012" lon="5.152215"><ele>29.711043</ele></trkpt>
      <trkpt lat="51.203739" lon="5.151212"><ele>29.856072</ele></trkpt>
      <trkpt lat="51.202911" lon="5.151628"><ele>29.388714</ele></trkpt>
      <trkpt lat="51.202806" lon="5.151721"><ele>29.310148</ele></trkpt>
      <trkpt lat="51.202460" lon="5.151914"><ele>29.130583</ele></trkpt>
      <trkpt lat="51.202348" lon="5.151965"><ele>29.140772</ele></trkpt>
      <trkpt lat="51.201495" lon="5.152374"><ele>29.659084</ele></trkpt>
      <trkpt lat="51.201449" lon="5.152434"><ele>29.654151</ele></trkpt>
      <trkpt lat="51.201438" lon="5.152777"><ele>29.612728</ele></trkpt>
      <trkpt lat="51.201482" lon="5.153854"><ele>29.436684</ele></trkpt>
      <trkpt lat="51.201512" lon="5.154287"><ele>29.436264</ele></trkpt>
      <trkpt lat="51.201481" lon="5.154397"><ele>29.430655</ele></trkpt>
      <trkpt lat="51.201181" lon="5.154519"><ele>28.836020</ele></trkpt>
      <trkpt lat="51.201124" lon="5.154605"><ele>28.694559</ele></trkpt>
      <trkpt lat="51.201199" lon="5.154887"><ele>28.480684</ele></trkpt>
      <trkpt lat="51.201390" lon="5.156030"><ele>27.783428</ele></trkpt>
      <trkpt lat="51.201681" lon="5.157108"><ele>26.786327</ele></trkpt>
      <trkpt lat="51.201667" lon="5.157340"><ele>26.573339</ele></trkpt>
      <trkpt lat="51.201335" lon="5.157266"><ele>26.399019</ele></trkpt>
      <trkpt lat="51.200707" lon="5.157126"><ele>26.215057</ele></trkpt>
      <trkpt lat="51.196680" lon="5.156236"><ele>26.505061</ele></trkpt>
      <trkpt lat="51.196171" lon="5.156121"><ele>26.589126</ele></trkpt>
      <trkpt lat="51.196101" lon="5.156128"><ele>26.595372</ele></trkpt>
      <trkpt lat="51.195896" lon="5.156281"><ele>26.600000</ele></trkpt>
      <trkpt lat="51.195720" lon="5.156254"><ele>26.600000</ele></trkpt>
      <trkpt lat="51.195641" lon="5.156227"><ele>26.600000</ele></trkpt>
      <trkpt lat="51.195397" lon="5.155946"><ele>26.609554</ele></trkpt>
      <trkpt lat="51.194899" lon="5.155837"><ele>26.707820</ele></trkpt>
      <trkpt lat="51.193834" lon="5.155604"><ele>27.015595</ele></trkpt>
      <trkpt lat="51.193502" lon="5.155533"><ele>27.170699</ele></trkpt>
      <trkpt lat="51.190662" lon="5.154917"><ele>27.101960</ele></trkpt>
      <trkpt lat="51.190441" lon="5.154866"><ele>27.039169</ele></trkpt>
      <trkpt lat="51.187606" lon="5.154219"><ele>24.059430</ele></trkpt>
      <trkpt lat="51.186393" lon="5.153968"><ele>23.900587</ele></trkpt>
      <trkpt lat="51.184982" lon="5.153677"><ele>23.820358</ele></trkpt>
      <trkpt lat="51.180323" lon="5.152617"><ele>26.678693</ele></trkpt>
      <trkpt lat="51.177586" lon="5.152003"><ele>26.601691</ele></trkpt>
      <trkpt lat="51.177173" lon="5.151910"><ele>26.623731</ele></trkpt>
      <trkpt lat="51.176040" lon="5.151662"><ele>27.230910</ele></trkpt>
      <trkpt lat="51.175983" lon="5.151650"><ele>27.179517</ele></trkpt>
      <trkpt lat="51.175781" lon="5.151773"><ele>26.963525</ele></trkpt>
      <trkpt lat="51.175705" lon="5.151767"><ele>26.876201</ele></trkpt>
      <trkpt lat="51.175451" lon="5.151699"><ele>26.803606</ele></trkpt>
      <trkpt lat="51.175365" lon="5.151605"><ele>26.840353</ele></trkpt>
      <trkpt lat="51.175322" lon="5.151480"><ele>26.883295</ele></trkpt>
      <trkpt lat="51.174287" lon="5.151241"><ele>27.204611</ele></trkpt>
      <trkpt lat="51.173131" lon="5.150974"><ele>27.677843</ele></trkpt>
      <trkpt lat="51.172795" lon="5.150882"><ele>28.179524</ele></trkpt>
      <trkpt lat="51.172682" lon="5.150922"><ele>28.287095</ele></trkpt>
      <trkpt lat="51.170183" lon="5.150370"><ele>27.499895</ele></trkpt>
      <trkpt lat="51.168529" lon="5.150004"><ele>26.913443</ele></trkpt>
      <trkpt lat="51.162788" lon="5.148742"><ele>26.012528</ele></trkpt>
      <trkpt lat="51.161905" lon="5.148545"><ele>26.198112</ele></trkpt>
      <trkpt lat="51.156338" lon="5.147304"><ele>27.078893</ele></trkpt>
      <trkpt lat="51.156174" lon="5.147249"><ele>27.052184</ele></trkpt>
      <trkpt lat="51.156030" lon="5.147137"><ele>27.409094</ele></trkpt>
      <trkpt lat="51.155828" lon="5.146957"><ele>28.582631</ele></trkpt>
      <trkpt lat="51.155694" lon="5.146784"><ele>29.357442</ele></trkpt>
      <trkpt lat="51.155548" lon="5.146919"><ele>29.379594</ele></trkpt>
      <trkpt lat="51.155337" lon="5.147004"><ele>28.639742</ele></trkpt>
      <trkpt lat="51.154904" lon="5.146978"><ele>27.607465</ele></trkpt>
      <trkpt lat="51.154574" lon="5.146897"><ele>27.062514</ele></trkpt>
      <trkpt lat="51.152084" lon="5.146344"><ele>26.211805</ele></trkpt>
      <trkpt lat="51.151813" lon="5.146304"><ele>25.858611</ele></trkpt>
      <trkpt lat="51.150481" lon="5.146007"><ele>25.104660</ele></trkpt>
      <trkpt lat="51.147881" lon="5.145426"><ele>24.079202</ele></trkpt>
      <trkpt lat="51.141245" lon="5.143968"><ele>26.470863</ele></trkpt>
      <trkpt lat="51.140621" lon="5.143835"><ele>26.400321</ele></trkpt>
      <trkpt lat="51.139956" lon="5.143692"><ele>26.354121</ele></trkpt>
      <trkpt lat="51.139589" lon="5.143609"><ele>26.909580</ele></trkpt>
      <trkpt lat="51.139205" lon="5.143522"><ele>27.538771</ele></trkpt>
      <trkpt lat="51.139131" lon="5.143486"><ele>27.626663</ele></trkpt>
      <trkpt lat="51.139113" lon="5.143440"><ele>27.665303</ele></trkpt>
      <trkpt lat="51.138937" lon="5.143424"><ele>27.612364</ele></trkpt>
      <trkpt lat="51.138636" lon="5.143383"><ele>27.127306</ele></trkpt>
      <trkpt lat="51.138525" lon="5.143326"><ele>26.809754</ele></trkpt>
      <trkpt lat="51.138477" lon="5.143354"><ele>26.670571</ele></trkpt>
      <trkpt lat="51.129562" lon="5.141232"><ele>26.316324</ele></trkpt>
      <trkpt lat="51.128557" lon="5.141003"><ele>26.632055</ele></trkpt>
      <trkpt lat="51.128355" lon="5.140951"><ele>26.663766</ele></trkpt>
      <trkpt lat="51.128313" lon="5.140678"><ele>26.911202</ele></trkpt>
      <trkpt lat="51.128431" lon="5.140295"><ele>27.477632</ele></trkpt>
      <trkpt lat="51.128511" lon="5.140215"><ele>27.546418</ele></trkpt>
      <trkpt lat="51.128472" lon="5.140695"><ele>27.325012</ele></trkpt>
      <trkpt lat="51.128347" lon="5.142168"><ele>26.791764</ele></trkpt>
      <trkpt lat="51.128290" lon="5.142198"><ele>26.739710</ele></trkpt>
      <trkpt lat="51.128220" lon="5.142426"><ele>26.560849</ele></trkpt>
      <trkpt lat="51.128175" lon="5.142076"><ele>26.170193</ele></trkpt>
      <trkpt lat="51.128210" lon="5.142005"><ele>26.144791</ele></trkpt>
      <trkpt lat="51.128226" lon="5.141882"><ele>26.109448</ele></trkpt>
      <trkpt lat="51.128538" lon="5.141939"><ele>26.713873</ele></trkpt>
      <trkpt lat="51.128593" lon="5.141953"><ele>26.763531</ele></trkpt>
      <trkpt lat="51.128707" lon="5.141980"><ele>26.866289</ele></trkpt>
      <trkpt lat="51.129569" lon="5.142189"><ele>26.512997</ele></trkpt>
      <trkpt lat="51.131963" lon="5.142752"><ele>26.109194</ele></trkpt>
      <trkpt lat="51.134286" lon="5.143310"><ele>26.100000</ele></trkpt>
      <trkpt lat="51.137110" lon="5.143988"><ele>26.115695</ele></trkpt>
      <trkpt lat="51.137417" lon="5.144113"><ele>26.210892</ele></trkpt>
      <trkpt lat="51.138452" lon="5.144329"><ele>26.885077</ele></trkpt>
      <trkpt lat="51.138700" lon="5.144376"><ele>27.342304</ele></trkpt>
      <trkpt lat="51.138932" lon="5.144420"><ele>27.567382</ele></trkpt>
      <trkpt lat="51.139052" lon="5.144447"><ele>27.522790</ele></trkpt>
      <trkpt lat="51.139215" lon="5.144485"><ele>27.396544</ele></trkpt>
      <trkpt lat="51.139674" lon="5.144588"><ele>26.820726</ele></trkpt>
      <trkpt lat="51.140137" lon="5.144691"><ele>26.474733</ele></trkpt>
      <trkpt lat="51.141106" lon="5.144900"><ele>26.589442</ele></trkpt>
      <trkpt lat="51.141325" lon="5.144945"><ele>26.603666</ele></trkpt>
      <trkpt lat="51.153292" lon="5.147585"><ele>27.494211</ele></trkpt>
      <trkpt lat="51.154177" lon="5.147780"><ele>27.491889</ele></trkpt>
      <trkpt lat="51.155111" lon="5.147988"><ele>27.485097</ele></trkpt>
      <trkpt lat="51.155146" lon="5.147996"><ele>27.505247</ele></trkpt>
      <trkpt lat="51.155111" lon="5.147988"><ele>27.525396</ele></trkpt>
      <trkpt lat="51.155045" lon="5.148571"><ele>28.029805</ele></trkpt>
      <trkpt lat="51.154275" lon="5.149048"><ele>28.349383</ele></trkpt>
      <trkpt lat="51.154364" lon="5.150012"><ele>28.031144</ele></trkpt>
      <trkpt lat="51.154383" lon="5.150047"><ele>28.025129</ele></trkpt>
      <trkpt lat="51.154885" lon="5.149988"><ele>28.255837</ele></trkpt>
      <trkpt lat="51.154976" lon="5.150084"><ele>28.381110</ele></trkpt>
      <trkpt lat="51.156475" lon="5.149784"><ele>29.576963</ele></trkpt>
      <trkpt lat="51.156315" lon="5.149099"><ele>29.025829</ele></trkpt>
      <trkpt lat="51.156545" lon="5.148311"><ele>28.335428</ele></trkpt>
      <trkpt lat="51.157131" lon="5.148439"><ele>28.203524</ele></trkpt>
      <trkpt lat="51.160905" lon="5.149266"><ele>27.813832</ele></trkpt>
      <trkpt lat="51.163699" lon="5.149891"><ele>28.201729</ele></trkpt>
      <trkpt lat="51.166336" lon="5.150467"><ele>28.685910</ele></trkpt>
      <trkpt lat="51.168636" lon="5.150977"><ele>28.183537</ele></trkpt>
      <trkpt lat="51.168810" lon="5.151168"><ele>28.042271</ele></trkpt>
      <trkpt lat="51.169006" lon="5.151164"><ele>27.782999</ele></trkpt>
      <trkpt lat="51.171588" lon="5.151754"><ele>28.596392</ele></trkpt>
      <trkpt lat="51.172666" lon="5.151968"><ele>28.868454</ele></trkpt>
      <trkpt lat="51.173013" lon="5.152048"><ele>28.805536</ele></trkpt>
      <trkpt lat="51.173024" lon="5.151961"><ele>28.791022</ele></trkpt>
      <trkpt lat="51.174885" lon="5.152381"><ele>28.205825</ele></trkpt>
      <trkpt lat="51.175059" lon="5.152244"><ele>27.878527</ele></trkpt>
      <trkpt lat="51.175180" lon="5.152233"><ele>27.615786</ele></trkpt>
      <trkpt lat="51.175413" lon="5.152304"><ele>27.248987</ele></trkpt>
      <trkpt lat="51.175521" lon="5.152421"><ele>27.420064</ele></trkpt>
      <trkpt lat="51.175593" lon="5.152499"><ele>27.543606</ele></trkpt>
      <trkpt lat="51.176178" lon="5.152641"><ele>28.475765</ele></trkpt>
      <trkpt lat="51.177633" lon="5.152956"><ele>27.430093</ele></trkpt>
      <trkpt lat="51.179488" lon="5.153369"><ele>26.850363</ele></trkpt>
      <trkpt lat="51.180493" lon="5.153604"><ele>27.378519</ele></trkpt>
      <trkpt lat="51.182780" lon="5.154104"><ele>27.362179</ele></trkpt>
      <trkpt lat="51.182978" lon="5.154177"><ele>26.909809</ele></trkpt>
      <trkpt lat="51.183106" lon="5.154322"><ele>26.318613</ele></trkpt>
      <trkpt lat="51.183571" lon="5.155583"><ele>22.962988</ele></trkpt>
      <trkpt lat="51.183656" lon="5.155658"><ele>22.849251</ele></trkpt>
      <trkpt lat="51.184419" lon="5.155833"><ele>22.032870</ele></trkpt>
      <trkpt lat="51.184556" lon="5.155815"><ele>22.027172</ele></trkpt>
      <trkpt lat="51.185184" lon="5.154829"><ele>22.315629</ele></trkpt>
      <trkpt lat="51.185284" lon="5.154717"><ele>22.376534</ele></trkpt>
      <trkpt lat="51.185394" lon="5.154684"><ele>22.456888</ele></trkpt>
      <trkpt lat="51.189525" lon="5.155608"><ele>25.479480</ele></trkpt>
      <trkpt lat="51.190708" lon="5.155867"><ele>25.659923</ele></trkpt>
      <trkpt lat="51.193227" lon="5.156427"><ele>27.852987</ele></trkpt>
      <trkpt lat="51.193652" lon="5.156506"><ele>28.458593</ele></trkpt>
      <trkpt lat="51.195431" lon="5.156911"><ele>27.413136</ele></trkpt>
      <trkpt lat="51.195639" lon="5.156750"><ele>27.305336</ele></trkpt>
      <trkpt lat="51.195934" lon="5.156807"><ele>27.258892</ele></trkpt>
      <trkpt lat="51.196112" lon="5.157055"><ele>27.455189</ele></trkpt>
      <trkpt lat="51.196748" lon="5.157180"><ele>27.387509</ele></trkpt>
      <trkpt lat="51.197876" lon="5.157440"><ele>26.923276</ele></trkpt>
      <trkpt lat="51.201013" lon="5.158165"><ele>27.398713</ele></trkpt>
      <trkpt lat="51.204425" lon="5.158888"><ele>27.778288</ele></trkpt>
      <trkpt lat="51.204628" lon="5.158962"><ele>27.777330</ele></trkpt>
      <trkpt lat="51.204666" lon="5.158976"><ele>27.801879</ele></trkpt>
      <trkpt lat="51.205127" lon="5.159092"><ele>28.103519</ele></trkpt>
      <trkpt lat="51.205410" lon="5.159114"><ele>28.245208</ele></trkpt>
      <trkpt lat="51.207921" lon="5.159669"><ele>27.318593</ele></trkpt>
      <trkpt lat="51.209163" lon="5.159950"><ele>27.513770</ele></trkpt>
      <trkpt lat="51.209764" lon="5.160107"><ele>26.835111</ele></trkpt>
      <trkpt lat="51.209895" lon="5.160114"><ele>26.731023</ele></trkpt>
      <trkpt lat="51.214077" lon="5.161045"><ele>26.202047</ele></trkpt>
      <trkpt lat="51.217789" lon="5.161871"><ele>25.923319</ele></trkpt>
      <trkpt lat="51.218032" lon="5.161709"><ele>25.978686</ele></trkpt>
      <trkpt lat="51.218396" lon="5.161783"><ele>26.012715</ele></trkpt>
      <trkpt lat="51.218634" lon="5.162056"><ele>26.104929</ele></trkpt>
      <trkpt lat="51.219876" lon="5.162341"><ele>26.624616</ele></trkpt>
      <trkpt lat="51.219909" lon="5.162453"><ele>26.700916</ele></trkpt>
      <trkpt lat="51.220207" lon="5.162881"><ele>27.099445</ele></trkpt>
      <trkpt lat="51.220270" lon="5.163015"><ele>27.204805</ele></trkpt>
      <trkpt lat="51.220277" lon="5.163128"><ele>27.276209</ele></trkpt>
      <trkpt lat="51.219938" lon="5.163039"><ele>27.431762</ele></trkpt>
      <trkpt lat="51.219077" lon="5.163016"><ele>27.291847</ele></trkpt>
      <trkpt lat="51.218833" lon="5.162910"><ele>27.159459</ele></trkpt>
      <trkpt lat="51.218604" lon="5.162705"><ele>26.927265</ele></trkpt>
      <trkpt lat="51.218384" lon="5.162365"><ele>26.680627</ele></trkpt>
      <trkpt lat="51.218295" lon="5.162142"><ele>26.491790</ele></trkpt>
      <trkpt lat="51.218207" lon="5.161799"><ele>26.098916</ele></trkpt>
      <trkpt lat="51.218077" lon="5.161148"><ele>24.926296</ele></trkpt>
      <trkpt lat="51.218059" lon="5.161059"><ele>24.790385</ele></trkpt>
      <trkpt lat="51.217932" lon="5.160482"><ele>24.594796</ele></trkpt>
      <trkpt lat="51.217806" lon="5.160079"><ele>24.514010</ele></trkpt>
      <trkpt lat="51.217916" lon="5.160059"><ele>24.478084</ele></trkpt>
      <trkpt lat="51.218798" lon="5.160972"><ele>24.043660</ele></trkpt>
      <trkpt lat="51.219142" lon="5.161106"><ele>23.452114</ele></trkpt>
      <trkpt lat="51.221044" lon="5.161523"><ele>24.172759</ele></trkpt>
      <trkpt lat="51.221063" lon="5.161527"><ele>24.168918</ele></trkpt>
      <trkpt lat="51.221314" lon="5.161555"><ele>24.179546</ele></trkpt>
      <trkpt lat="51.223678" lon="5.162109"><ele>25.871708</ele></trkpt>
      <trkpt lat="51.228169" lon="5.163104"><ele>25.599363</ele></trkpt>
      <trkpt lat="51.230567" lon="5.163634"><ele>25.389598</ele></trkpt>
      <trkpt lat="51.232008" lon="5.163945"><ele>24.957716</ele></trkpt>
      <trkpt lat="51.232265" lon="5.163901"><ele>25.125134</ele></trkpt>
      <trkpt lat="51.232568" lon="5.163703"><ele>25.500122</ele></trkpt>
      <trkpt lat="51.233012" lon="5.163129"><ele>26.275044</ele></trkpt>
      <trkpt lat="51.233247" lon="5.162907"><ele>26.840735</ele></trkpt>
      <trkpt lat="51.233724" lon="5.162676"><ele>27.315005</ele></trkpt>
      <trkpt lat="51.233786" lon="5.162650"><ele>27.729645</ele></trkpt>
      <trkpt lat="51.233724" lon="5.162676"><ele>27.729645</ele></trkpt>
      <trkpt lat="51.233838" lon="5.163276"><ele>27.957174</ele></trkpt>
      <trkpt lat="51.233860" lon="5.163483"><ele>27.987160</ele></trkpt>
      <trkpt lat="51.233844" lon="5.163639"><ele>27.938774</ele></trkpt>
      <trkpt lat="51.233668" lon="5.164148"><ele>27.603949</ele></trkpt>
      <trkpt lat="51.233608" lon="5.164291"><ele>27.490793</ele></trkpt>
      <trkpt lat="51.233544" lon="5.164356"><ele>27.411167</ele></trkpt>
      <trkpt lat="51.233434" lon="5.164401"><ele>27.276021</ele></trkpt>
      <trkpt lat="51.232886" lon="5.164270"><ele>26.612975</ele></trkpt>
      <trkpt lat="51.232653" lon="5.164214"><ele>26.384008</ele></trkpt>
      <trkpt lat="51.232609" lon="5.164145"><ele>26.322931</ele></trkpt>
      <trkpt lat="51.232451" lon="5.164122"><ele>26.165790</ele></trkpt>
      <trkpt lat="51.232408" lon="5.164163"><ele>26.094900</ele></trkpt>
      <trkpt lat="51.231935" lon="5.164053"><ele>25.520020</ele></trkpt>
      <trkpt lat="51.226801" lon="5.162919"><ele>25.801528</ele></trkpt>
      <trkpt lat="51.223667" lon="5.162227"><ele>25.966496</ele></trkpt>
      <trkpt lat="51.222569" lon="5.161984"><ele>24.604935</ele></trkpt>
      <trkpt lat="51.221801" lon="5.161815"><ele>23.679186</ele></trkpt>
      <trkpt lat="51.221341" lon="5.161678"><ele>23.902906</ele></trkpt>
      <trkpt lat="51.221066" lon="5.161645"><ele>24.037582</ele></trkpt>
      <trkpt lat="51.219136" lon="5.161221"><ele>23.043413</ele></trkpt>
      <trkpt lat="51.218590" lon="5.161093"><ele>24.364346</ele></trkpt>
      <trkpt lat="51.218452" lon="5.161095"><ele>24.665593</ele></trkpt>
      <trkpt lat="51.218252" lon="5.161234"><ele>24.890924</ele></trkpt>
      <trkpt lat="51.218179" lon="5.161216"><ele>24.879077</ele></trkpt>
      <trkpt lat="51.217823" lon="5.161129"><ele>24.550212</ele></trkpt>
      <trkpt lat="51.217674" lon="5.160911"><ele>24.503189</ele></trkpt>
      <trkpt lat="51.217403" lon="5.160849"><ele>24.495198</ele></trkpt>
      <trkpt lat="51.213652" lon="5.159979"><ele>24.027774</ele></trkpt>
      <trkpt lat="51.211933" lon="5.159597"><ele>24.803286</ele></trkpt>
      <trkpt lat="51.207708" lon="5.158659"><ele>26.975000</ele></trkpt>
      <trkpt lat="51.207227" lon="5.158564"><ele>27.546992</ele></trkpt>
      <trkpt lat="51.205753" lon="5.158227"><ele>28.225352</ele></trkpt>
      <trkpt lat="51.205695" lon="5.158216"><ele>28.172871</ele></trkpt>
      <trkpt lat="51.205229" lon="5.158103"><ele>27.937158</ele></trkpt>
      <trkpt lat="51.205171" lon="5.158089"><ele>27.968028</ele></trkpt>
      <trkpt lat="51.205093" lon="5.157955"><ele>28.271431</ele></trkpt>
      <trkpt lat="51.205021" lon="5.157445"><ele>29.292176</ele></trkpt>
      <trkpt lat="51.204743" lon="5.156845"><ele>29.768377</ele></trkpt>
      <trkpt lat="51.204546" lon="5.156237"><ele>29.832684</ele></trkpt>
      <trkpt lat="51.204539" lon="5.156056"><ele>29.816582</ele></trkpt>
      <trkpt lat="51.204465" lon="5.155926"><ele>29.777838</ele></trkpt>
      <trkpt lat="51.204038" lon="5.154374"><ele>28.968836</ele></trkpt>
      <trkpt lat="51.203944" lon="5.153980"><ele>29.025469</ele></trkpt>
      <trkpt lat="51.203918" lon="5.153620"><ele>29.205918</ele></trkpt>
      <trkpt lat="51.203952" lon="5.152975"><ele>29.559908</ele></trkpt>
      <trkpt lat="51.204012" lon="5.152398"><ele>29.692525</ele></trkpt>
      <trkpt lat="51.204012" lon="5.152215"><ele>29.711043</ele></trkpt>
      <trkpt lat="51.203739" lon="5.151212"><ele>29.856072</ele></trkpt>
      <trkpt lat="51.202911" lon="5.151628"><ele>29.388714</ele></trkpt>
      <trkpt lat="51.202806" lon="5.151721"><ele>29.310148</ele></trkpt>
      <trkpt lat="51.202460" lon="5.151914"><ele>29.130583</ele></trkpt>
      <trkpt lat="51.202348" lon="5.151965"><ele>29.140772</ele></trkpt>
      <trkpt lat="51.201495" lon="5.152374"><ele>29.659084</ele></trkpt>
      <trkpt lat="51.201449" lon="5.152434"><ele>29.654151</ele></trkpt>
      <trkpt lat="51.201438" lon="5.152777"><ele>29.612728</ele></trkpt>
      <trkpt lat="51.201482" lon="5.153854"><ele>29.436684</ele></trkpt>
      <trkpt lat="51.201512" lon="5.154287"><ele>29.436264</ele></trkpt>
      <trkpt lat="51.201481" lon="5.154397"><ele>29.430655</ele></trkpt>
      <trkpt lat="51.201181" lon="5.154519"><ele>28.836020</ele></trkpt>
      <trkpt lat="51.201124" lon="5.154605"><ele>28.694559</ele></trkpt>
      <trkpt lat="51.201199" lon="5.154887"><ele>28.480684</ele></trkpt>
      <trkpt lat="51.201390" lon="5.156030"><ele>27.783428</ele></trkpt>
      <trkpt lat="51.201681" lon="5.157108"><ele>26.786327</ele></trkpt>
      <trkpt lat="51.201667" lon="5.157340"><ele>26.573339</ele></trkpt>
      <trkpt lat="51.201335" lon="5.157266"><ele>26.399019</ele></trkpt>
      <trkpt lat="51.200707" lon="5.157126"><ele>26.215057</ele></trkpt>
      <trkpt lat="51.196680" lon="5.156236"><ele>26.505061</ele></trkpt>
      <trkpt lat="51.196171" lon="5.156121"><ele>26.589126</ele></trkpt>
      <trkpt lat="51.196101" lon="5.156128"><ele>26.595372</ele></trkpt>
      <trkpt lat="51.195896" lon="5.156281"><ele>26.600000</ele></trkpt>
      <trkpt lat="51.195720" lon="5.156254"><ele>26.600000</ele></trkpt>
      <trkpt lat="51.195641" lon="5.156227"><ele>26.600000</ele></trkpt>
      <trkpt lat="51.195397" lon="5.155946"><ele>26.609554</ele></trkpt>
      <trkpt lat="51.194899" lon="5.155837"><ele>26.707820</ele></trkpt>
      <trkpt lat="51.193834" lon="5.155604"><ele>27.015595</ele></trkpt>
      <trkpt lat="51.193502" lon="5.155533"><ele>27.170699</ele></trkpt>
      <trkpt lat="51.190662" lon="5.154917"><ele>27.101960</ele></trkpt>
      <trkpt lat="51.190441" lon="5.154866"><ele>27.039169</ele></trkpt>
      <trkpt lat="51.187606" lon="5.154219"><ele>24.059430</ele></trkpt>
      <trkpt lat="51.186393" lon="5.153968"><ele>23.900587</ele></trkpt>
      <trkpt lat="51.184982" lon="5.153677"><ele>23.820358</ele></trkpt>
      <trkpt lat="51.180323" lon="5.152617"><ele>26.678693</ele></trkpt>
      <trkpt lat="51.177586" lon="5.152003"><ele>26.601691</ele></trkpt>
      <trkpt lat="51.177173" lon="5.151910"><ele>26.623731</ele></trkpt>
      <trkpt lat="51.176040" lon="5.151662"><ele>27.230910</ele></trkpt>
      <trkpt lat="51.175983" lon="5.151650"><ele>27.179517</ele></trkpt>
      <trkpt lat="51.175781" lon="5.151773"><ele>26.963525</ele></trkpt>
      <trkpt lat="51.175705" lon="5.151767"><ele>26.876201</ele></trkpt>
      <trkpt lat="51.175451" lon="5.151699"><ele>26.803606</ele></trkpt>
      <trkpt lat="51.175365" lon="5.151605"><ele>26.840353</ele></trkpt>
      <trkpt lat="51.175322" lon="5.151480"><ele>26.883295</ele></trkpt>
      <trkpt lat="51.174287" lon="5.151241"><ele>27.204611</ele></trkpt>
      <trkpt lat="51.173131" lon="5.150974"><ele>27.677843</ele></trkpt>
      <trkpt lat="51.172795" lon="5.150882"><ele>28.179524</ele></trkpt>
      <trkpt lat="51.172682" lon="5.150922"><ele>28.287095</ele></trkpt>
      <trkpt lat="51.170183" lon="5.150370"><ele>27.499895</ele></trkpt>
      <trkpt lat="51.168529" lon="5.150004"><ele>26.913443</ele></trkpt>
      <trkpt lat="51.162788" lon="5.148742"><ele>26.012528</ele></trkpt>
      <trkpt lat="51.161905" lon="5.148545"><ele>26.198112</ele></trkpt>
      <trkpt lat="51.156338" lon="5.147304"><ele>27.078893</ele></trkpt>
      <trkpt lat="51.156174" lon="5.147249"><ele>27.052184</ele></trkpt>
      <trkpt lat="51.156030" lon="5.147137"><ele>27.409094</ele></trkpt>
      <trkpt lat="51.155828" lon="5.146957"><ele>28.582631</ele></trkpt>
      <trkpt lat="51.155694" lon="5.146784"><ele>29.357442</ele></trkpt>
      <trkpt lat="51.155548" lon="5.146919"><ele>29.379594</ele></trkpt>
      <trkpt lat="51.155337" lon="5.147004"><ele>28.639742</ele></trkpt>
      <trkpt lat="51.154904" lon="5.146978"><ele>27.607465</ele></trkpt>
      <trkpt lat="51.154574" lon="5.146897"><ele>27.062514</ele></trkpt>
      <trkpt lat="51.152084" lon="5.146344"><ele>26.211805</ele></trkpt>
      <trkpt lat="51.151813" lon="5.146304"><ele>25.858611</ele></trkpt>
      <trkpt lat="51.150481" lon="5.146007"><ele>25.104660</ele></trkpt>
      <trkpt lat="51.147881" lon="5.145426"><ele>24.079202</ele></trkpt>
      <trkpt lat="51.141245" lon="5.143968"><ele>26.470863</ele></trkpt>
      <trkpt lat="51.140621" lon="5.143835"><ele>26.400321</ele></trkpt>
      <trkpt lat="51.139956" lon="5.143692"><ele>26.354121</ele></trkpt>
      <trkpt lat="51.139589" lon="5.143609"><ele>26.909580</ele></trkpt>
      <trkpt lat="51.139205" lon="5.143522"><ele>27.538771</ele></trkpt>
      <trkpt lat="51.139131" lon="5.143486"><ele>27.626663</ele></trkpt>
      <trkpt lat="51.139113" lon="5.143440"><ele>27.665303</ele></trkpt>
      <trkpt lat="51.138937" lon="5.143424"><ele>27.612364</ele></trkpt>
      <trkpt lat="51.138636" lon="5.143383"><ele>27.127306</ele></trkpt>
      <trkpt lat="51.138525" lon="5.143326"><ele>26.809754</ele></trkpt>
      <trkpt lat="51.138477" lon="5.143354"><ele>26.670571</ele></trkpt>
      <trkpt lat="51.129562" lon="5.141232"><ele>26.316324</ele></trkpt>
      <trkpt lat="51.128557" lon="5.141003"><ele>26.632055</ele></trkpt>
      <trkpt lat="51.128355" lon="5.140951"><ele>26.663766</ele></trkpt>
      <trkpt lat="51.128313" lon="5.140678"><ele>26.911202</ele></trkpt>
      <trkpt lat="51.128431" lon="5.140295"><ele>27.477632</ele></trkpt>
      <trkpt lat="51.128511" lon="5.140215"><ele>27.546418</ele></trkpt>
      <trkpt lat="51.128472" lon="5.140695"><ele>27.325012</ele></trkpt>
      <trkpt lat="51.128347" lon="5.142168"><ele>26.791764</ele></trkpt>
      <trkpt lat="51.128290" lon="5.142198"><ele>26.739710</ele></trkpt>
      <trkpt lat="51.128220" lon="5.142426"><ele>26.560849</ele></trkpt>
      <trkpt lat="51.128175" lon="5.142076"><ele>26.170193</ele></trkpt>
      <trkpt lat="51.128210" lon="5.142005"><ele>26.144791</ele></trkpt>
      <trkpt lat="51.128226" lon="5.141882"><ele>26.109448</ele></trkpt>
      <trkpt lat="51.128538" lon="5.141939"><ele>26.713873</ele></trkpt>
      <trkpt lat="51.128593" lon="5.141953"><ele>26.763531</ele></trkpt>
      <trkpt lat="51.128707" lon="5.141980"><ele>26.866289</ele></trkpt>
      <trkpt lat="51.129569" lon="5.142189"><ele>26.512997</ele></trkpt>
      <trkpt lat="51.131963" lon="5.142752"><ele>26.109194</ele></trkpt>
      <trkpt lat="51.134286" lon="5.143310"><ele>26.100000</ele></trkpt>
      <trkpt lat="51.137110" lon="5.143988"><ele>26.115695</ele></trkpt>
      <trkpt lat="51.137417" lon="5.144113"><ele>26.210892</ele></trkpt>
      <trkpt lat="51.138452" lon="5.144329"><ele>26.885077</ele></trkpt>
      <trkpt lat="51.138700" lon="5.144376"><ele>27.342304</ele></trkpt>
      <trkpt lat="51.138932" lon="5.144420"><ele>27.567382</ele></trkpt>
      <trkpt lat="51.139052" lon="5.144447"><ele>27.522790</ele></trkpt>
      <trkpt lat="51.139215" lon="5.144485"><ele>27.396544</ele></trkpt>
      <trkpt lat="51.139674" lon="5.144588"><ele>26.820726</ele></trkpt>
      <trkpt lat="51.140137" lon="5.144691"><ele>26.474733</ele></trkpt>
      <trkpt lat="51.141106" lon="5.144900"><ele>26.589442</ele></trkpt>
      <trkpt lat="51.141325" lon="5.144945"><ele>26.603666</ele></trkpt>
      <trkpt lat="51.153292" lon="5.147585"><ele>27.494211</ele></trkpt>
      <trkpt lat="51.154177" lon="5.147780"><ele>27.491889</ele></trkpt>
      <trkpt lat="51.155111" lon="5.147988"><ele>27.485097</ele></trkpt>
      <trkpt lat="51.155146" lon="5.147996"><ele>27.505247</ele></trkpt>
      <trkpt lat="51.155111" lon="5.147988"><ele>27.525396</ele></trkpt>
      <trkpt lat="51.155045" lon="5.148571"><ele>28.029805</ele></trkpt>
      <trkpt lat="51.154275" lon="5.149048"><ele>28.349383</ele></trkpt>
      <trkpt lat="51.154364" lon="5.150012"><ele>28.031144</ele></trkpt>
      <trkpt lat="51.154383" lon="5.150047"><ele>28.025129</ele></trkpt>
      <trkpt lat="51.154885" lon="5.149988"><ele>28.255837</ele></trkpt>
      <trkpt lat="51.154976" lon="5.150084"><ele>28.381110</ele></trkpt>
      <trkpt lat="51.156475" lon="5.149784"><ele>29.576963</ele></trkpt>
      <trkpt lat="51.156315" lon="5.149099"><ele>29.025829</ele></trkpt>
      <trkpt lat="51.156545" lon="5.148311"><ele>28.335428</ele></trkpt>
      <trkpt lat="51.157131" lon="5.148439"><ele>28.203524</ele></trkpt>
      <trkpt lat="51.160905" lon="5.149266"><ele>27.813832</ele></trkpt>
      <trkpt lat="51.163699" lon="5.149891"><ele>28.201729</ele></trkpt>
      <trkpt lat="51.166336" lon="5.150467"><ele>28.685910</ele></trkpt>
      <trkpt lat="51.168636" lon="5.150977"><ele>28.183537</ele></trkpt>
      <trkpt lat="51.168810" lon="5.151168"><ele>28.042271</ele></trkpt>
      <trkpt lat="51.169006" lon="5.151164"><ele>27.782999</ele></trkpt>
      <trkpt lat="51.171588" lon="5.151754"><ele>28.596392</ele></trkpt>
      <trkpt lat="51.172666" lon="5.151968"><ele>28.868454</ele></trkpt>
      <trkpt lat="51.173013" lon="5.152048"><ele>28.805536</ele></trkpt>
      <trkpt lat="51.173024" lon="5.151961"><ele>28.791022</ele></trkpt>
      <trkpt lat="51.174885" lon="5.152381"><ele>28.205825</ele></trkpt>
      <trkpt lat="51.175059" lon="5.152244"><ele>27.878527</ele></trkpt>
      <trkpt lat="51.175180" lon="5.152233"><ele>27.615786</ele></trkpt>
      <trkpt lat="51.175413" lon="5.152304"><ele>27.248987</ele></trkpt>
      <trkpt lat="51.175521" lon="5.152421"><ele>27.420064</ele></trkpt>
      <trkpt lat="51.175593" lon="5.152499"><ele>27.543606</ele></trkpt>
      <trkpt lat="51.176178" lon="5.152641"><ele>28.475765</ele></trkpt>
      <trkpt lat="51.177633" lon="5.152956"><ele>27.430093</ele></trkpt>
      <trkpt lat="51.179488" lon="5.153369"><ele>26.850363</ele></trkpt>
      <trkpt lat="51.180493" lon="5.153604"><ele>27.378519</ele></trkpt>
      <trkpt lat="51.182780" lon="5.154104"><ele>27.362179</ele></trkpt>
      <trkpt lat="51.182978" lon="5.154177"><ele>26.909809</ele></trkpt>
      <trkpt lat="51.183106" lon="5.154322"><ele>26.318613</ele></trkpt>
      <trkpt lat="51.183571" lon="5.155583"><ele>22.962988</ele></trkpt>
      <trkpt lat="51.183656" lon="5.155658"><ele>22.849251</ele></trkpt>
      <trkpt lat="51.184419" lon="5.155833"><ele>22.032870</ele></trkpt>
      <trkpt lat="51.184556" lon="5.155815"><ele>22.027172</ele></trkpt>
      <trkpt lat="51.185184" lon="5.154829"><ele>22.315629</ele></trkpt>
      <trkpt lat="51.185284" lon="5.154717"><ele>22.376534</ele></trkpt>
      <trkpt lat="51.185394" lon="5.154684"><ele>22.456888</ele></trkpt>
      <trkpt lat="51.189525" lon="5.155608"><ele>25.479480</ele></trkpt>
      <trkpt lat="51.190708" lon="5.155867"><ele>25.659923</ele></trkpt>
      <trkpt lat="51.193227" lon="5.156427"><ele>27.852987</ele></trkpt>
      <trkpt lat="51.193652" lon="5.156506"><ele>28.458593</ele></trkpt>
      <trkpt lat="51.195431" lon="5.156911"><ele>27.413136</ele></trkpt>
      <trkpt lat="51.195639" lon="5.156750"><ele>27.305336</ele></trkpt>
      <trkpt lat="51.195934" lon="5.156807"><ele>27.258892</ele></trkpt>
      <trkpt lat="51.196112" lon="5.157055"><ele>27.455189</ele></trkpt>
      <trkpt lat="51.196748" lon="5.157180"><ele>27.387509</ele></trkpt>
      <trkpt lat="51.197876" lon="5.157440"><ele>26.923276</ele></trkpt>
      <trkpt lat="51.201013" lon="5.158165"><ele>27.398713</ele></trkpt>
      <trkpt lat="51.204425" lon="5.158888"><ele>27.778288</ele></trkpt>
      <trkpt lat="51.204628" lon="5.158962"><ele>27.777330</ele></trkpt>
      <trkpt lat="51.204666" lon="5.158976"><ele>27.801879</ele></trkpt>
      <trkpt lat="51.205127" lon="5.159092"><ele>28.103519</ele></trkpt>
      <trkpt lat="51.205410" lon="5.159114"><ele>28.245208</ele></trkpt>
      <trkpt lat="51.207921" lon="5.159669"><ele>27.318593</ele></trkpt>
      <trkpt lat="51.209163" lon="5.159950"><ele>27.513770</ele></trkpt>
      <trkpt lat="51.209764" lon="5.160107"><ele>26.835111</ele></trkpt>
      <trkpt lat="51.209895" lon="5.160114"><ele>26.731023</ele></trkpt>
      <trkpt lat="51.214077" lon="5.161045"><ele>26.202047</ele></trkpt>
      <trkpt lat="51.217789" lon="5.161871"><ele>25.923319</ele></trkpt>
      <trkpt lat="51.218032" lon="5.161709"><ele>25.978686</ele></trkpt>
      <trkpt lat="51.218396" lon="5.161783"><ele>26.012715</ele></trkpt>
      <trkpt lat="51.218634" lon="5.162056"><ele>26.104929</ele></trkpt>
      <trkpt lat="51.219876" lon="5.162341"><ele>26.624616</ele></trkpt>
      <trkpt lat="51.219909" lon="5.162453"><ele>26.700916</ele></trkpt>
      <trkpt lat="51.220207" lon="5.162881"><ele>27.099445</ele></trkpt>
      <trkpt lat="51.220270" lon="5.163015"><ele>27.204805</ele></trkpt>
      <trkpt lat="51.220277" lon="5.163128"><ele>27.276209</ele></trkpt>
      <trkpt lat="51.219938" lon="5.163039"><ele>27.431762</ele></trkpt>
      <trkpt lat="51.219077" lon="5.163016"><ele>27.291847</ele></trkpt>
      <trkpt lat="51.218833" lon="5.162910"><ele>27.159459</ele></trkpt>
      <trkpt lat="51.218604" lon="5.162705"><ele>26.927265</ele></trkpt>
      <trkpt lat="51.218384" lon="5.162365"><ele>26.680627</ele></trkpt>
      <trkpt lat="51.218295" lon="5.162142"><ele>26.491790</ele></trkpt>
      <trkpt lat="51.218207" lon="5.161799"><ele>26.098916</ele></trkpt>
      <trkpt lat="51.218077" lon="5.161148"><ele>24.926296</ele></trkpt>
      <trkpt lat="51.218059" lon="5.161059"><ele>24.790385</ele></trkpt>
      <trkpt lat="51.217932" lon="5.160482"><ele>24.594796</ele></trkpt>
      <trkpt lat="51.217806" lon="5.160079"><ele>24.514010</ele></trkpt>
      <trkpt lat="51.217916" lon="5.160059"><ele>24.478084</ele></trkpt>
      <trkpt lat="51.218798" lon="5.160972"><ele>24.043660</ele></trkpt>
      <trkpt lat="51.219142" lon="5.161106"><ele>23.452114</ele></trkpt>
      <trkpt lat="51.221044" lon="5.161523"><ele>24.172759</ele></trkpt>
      <trkpt lat="51.221063" lon="5.161527"><ele>24.168918</ele></trkpt>
      <trkpt lat="51.221314" lon="5.161555"><ele>24.179546</ele></trkpt>
      <trkpt lat="51.223678" lon="5.162109"><ele>25.871708</ele></trkpt>
      <trkpt lat="51.228169" lon="5.163104"><ele>25.599363</ele></trkpt>
      <trkpt lat="51.230567" lon="5.163634"><ele>25.389598</ele></trkpt>
      <trkpt lat="51.232008" lon="5.163945"><ele>24.957716</ele></trkpt>
      <trkpt lat="51.232265" lon="5.163901"><ele>25.125134</ele></trkpt>
      <trkpt lat="51.232568" lon="5.163703"><ele>25.500122</ele></trkpt>
      <trkpt lat="51.233012" lon="5.163129"><ele>26.275044</ele></trkpt>
      <trkpt lat="51.233247" lon="5.162907"><ele>26.840735</ele></trkpt>
      <trkpt lat="51.233724" lon="5.162676"><ele>27.315005</ele></trkpt>
      <trkpt lat="51.233786" lon="5.162650"><ele>27.729645</ele></trkpt>
      <trkpt lat="51.233724" lon="5.162676"><ele>27.729645</ele></trkpt>
      <trkpt lat="51.233838" lon="5.163276"><ele>27.957174</ele></trkpt>
      <trkpt lat="51.233860" lon="5.163483"><ele>27.987160</ele></trkpt>
      <trkpt lat="51.233844" lon="5.163639"><ele>27.938774</ele></trkpt>
      <trkpt lat="51.233668" lon="5.164148"><ele>27.603949</ele></trkpt>
      <trkpt lat="51.233608" lon="5.164291"><ele>27.490793</ele></trkpt>
      <trkpt lat="51.233544" lon="5.164356"><ele>27.411167</ele></trkpt>
      <trkpt lat="51.233434" lon="5.164401"><ele>27.276021</ele></trkpt>
      <trkpt lat="51.232886" lon="5.164270"><ele>26.612975</ele></trkpt>
      <trkpt lat="51.232653" lon="5.164214"><ele>26.384008</ele></trkpt>
      <trkpt lat="51.232609" lon="5.164145"><ele>26.322931</ele></trkpt>
      <trkpt lat="51.232451" lon="5.164122"><ele>26.165790</ele></trkpt>
      <trkpt lat="51.232408" lon="5.164163"><ele>26.094900</ele></trkpt>
      <trkpt lat="51.231935" lon="5.164053"><ele>25.520020</ele></trkpt>
      <trkpt lat="51.226801" lon="5.162919"><ele>25.801528</ele></trkpt>
      <trkpt lat="51.223667" lon="5.162227"><ele>25.966496</ele></trkpt>
      <trkpt lat="51.222569" lon="5.161984"><ele>24.604935</ele></trkpt>
      <trkpt lat="51.221801" lon="5.161815"><ele>23.679186</ele></trkpt>
      <trkpt lat="51.221341" lon="5.161678"><ele>23.902906</ele></trkpt>
      <trkpt lat="51.221066" lon="5.161645"><ele>24.037582</ele></trkpt>
      <trkpt lat="51.219136" lon="5.161221"><ele>23.043413</ele></trkpt>
      <trkpt lat="51.218590" lon="5.161093"><ele>24.364346</ele></trkpt>
      <trkpt lat="51.218452" lon="5.161095"><ele>24.665593</ele></trkpt>
      <trkpt lat="51.218252" lon="5.161234"><ele>24.890924</ele></trkpt>
      <trkpt lat="51.218179" lon="5.161216"><ele>24.879077</ele></trkpt>
      <trkpt lat="51.217823" lon="5.161129"><ele>24.550212</ele></trkpt>
      <trkpt lat="51.217674" lon="5.160911"><ele>24.503189</ele></trkpt>
      <trkpt lat="51.217403" lon="5.160849"><ele>24.495198</ele></trkpt>
      <trkpt lat="51.213652" lon="5.159979"><ele>24.027774</ele></trkpt>
      <trkpt lat="51.211933" lon="5.159597"><ele>24.803286</ele></trkpt>
      <trkpt lat="51.207708" lon="5.158659"><ele>26.975000</ele></trkpt>
      <trkpt lat="51.207227" lon="5.158564"><ele>27.546992</ele></trkpt>
      <trkpt lat="51.205753" lon="5.158227"><ele>28.225352</ele></trkpt>
      <trkpt lat="51.205695" lon="5.158216"><ele>28.172871</ele></trkpt>
      <trkpt lat="51.205229" lon="5.158103"><ele>27.937158</ele></trkpt>
      <trkpt lat="51.205171" lon="5.158089"><ele>27.968028</ele></trkpt>
      <trkpt lat="51.205093" lon="5.157955"><ele>28.271431</ele></trkpt>
      <trkpt lat="51.205021" lon="5.157445"><ele>29.292176</ele></trkpt>
      <trkpt lat="51.204743" lon="5.156845"><ele>29.768377</ele></trkpt>
      <trkpt lat="51.204546" lon="5.156237"><ele>29.832684</ele></trkpt>
      <trkpt lat="51.204539" lon="5.156056"><ele>29.816582</ele></trkpt>
      <trkpt lat="51.204465" lon="5.155926"><ele>29.777838</ele></trkpt>
      <trkpt lat="51.204038" lon="5.154374"><ele>28.968836</ele></trkpt>
      <trkpt lat="51.203944" lon="5.153980"><ele>29.025469</ele></trkpt>
      <trkpt lat="51.203918" lon="5.153620"><ele>29.205918</ele></trkpt>
      <trkpt lat="51.203952" lon="5.152975"><ele>29.559908</ele></trkpt>
      <trkpt lat="51.204012" lon="5.152398"><ele>29.692525</ele></trkpt>
      <trkpt lat="51.204012" lon="5.152215"><ele>29.711043</ele></trkpt>
      <trkpt lat="51.203739" lon="5.151212"><ele>29.856072</ele></trkpt>
      <trkpt lat="51.202911" lon="5.151628"><ele>29.388714</ele></trkpt>
      <trkpt lat="51.202806" lon="5.151721"><ele>29.310148</ele></trkpt>
      <trkpt lat="51.202460" lon="5.151914"><ele>29.130583</ele></trkpt>
      <trkpt lat="51.202348" lon="5.151965"><ele>29.140772</ele></trkpt>
      <trkpt lat="51.201495" lon="5.152374"><ele>29.659084</ele></trkpt>
      <trkpt lat="51.201449" lon="5.152434"><ele>29.654151</ele></trkpt>
      <trkpt lat="51.201438" lon="5.152777"><ele>29.612728</ele></trkpt>
      <trkpt lat="51.201482" lon="5.153854"><ele>29.436684</ele></trkpt>
      <trkpt lat="51.201512" lon="5.154287"><ele>29.436264</ele></trkpt>
      <trkpt lat="51.201481" lon="5.154397"><ele>29.430655</ele></trkpt>
      <trkpt lat="51.201181" lon="5.154519"><ele>28.836020</ele></trkpt>
      <trkpt lat="51.201124" lon="5.154605"><ele>28.694559</ele></trkpt>
      <trkpt lat="51.201199" lon="5.154887"><ele>28.480684</ele></trkpt>
      <trkpt lat="51.201390" lon="5.156030"><ele>27.783428</ele></trkpt>
      <trkpt lat="51.201681" lon="5.157108"><ele>26.786327</ele></trkpt>
      <trkpt lat="51.201667" lon="5.157340"><ele>26.573339</ele></trkpt>
      <trkpt lat="51.201335" lon="5.157266"><ele>26.399019</ele></trkpt>
      <trkpt lat="51.200707" lon="5.157126"><ele>26.215057</ele></trkpt>
      <trkpt lat="51.196680" lon="5.156236"><ele>26.505061</ele></trkpt>
      <trkpt lat="51.196171" lon="5.156121"><ele>26.589126</ele></trkpt>
      <trkpt lat="51.196101" lon="5.156128"><ele>26.595372</ele></trkpt>
      <trkpt lat="51.195896" lon="5.156281"><ele>26.600000</ele></trkpt>
      <trkpt lat="51.195720" lon="5.156254"><ele>26.600000</ele></trkpt>
      <trkpt lat="51.195641" lon="5.156227"><ele>26.600000</ele></trkpt>
      <trkpt lat="51.195397" lon="5.155946"><ele>26.609554</ele></trkpt>
      <trkpt lat="51.194899" lon="5.155837"><ele>26.707820</ele></trkpt>
      <trkpt lat="51.193834" lon="5.155604"><ele>27.015595</ele></trkpt>
      <trkpt lat="51.193502" lon="5.155533"><ele>27.170699</ele></trkpt>
      <trkpt lat="51.190662" lon="5.154917"><ele>27.101960</ele></trkpt>
      <trkpt lat="51.190441" lon="5.154866"><ele>27.039169</ele></trkpt>
      <trkpt lat="51.187606" lon="5.154219"><ele>24.059430</ele></trkpt>
      <trkpt lat="51.186393" lon="5.153968"><ele>23.900587</ele></trkpt>
      <trkpt lat="51.184982" lon="5.153677"><ele>23.820358</ele></trkpt>
      <trkpt lat="51.180323" lon="5.152617"><ele>26.678693</ele></trkpt>
      <trkpt lat="51.177586" lon="5.152003"><ele>26.601691</ele></trkpt>
      <trkpt lat="51.177173" lon="5.151910"><ele>26.623731</ele></trkpt>
      <trkpt lat="51.176040" lon="5.151662"><ele>27.230910</ele></trkpt>
      <trkpt lat="51.175983" lon="5.151650"><ele>27.179517</ele></trkpt>
      <trkpt lat="51.175781" lon="5.151773"><ele>26.963525</ele></trkpt>
      <trkpt lat="51.175705" lon="5.151767"><ele>26.876201</ele></trkpt>
      <trkpt lat="51.175451" lon="5.151699"><ele>26.803606</ele></trkpt>
      <trkpt lat="51.175365" lon="5.151605"><ele>26.840353</ele></trkpt>
      <trkpt lat="51.175322" lon="5.151480"><ele>26.883295</ele></trkpt>
      <trkpt lat="51.174287" lon="5.151241"><ele>27.204611</ele></trkpt>
      <trkpt lat="51.173131" lon="5.150974"><ele>27.677843</ele></trkpt>
      <trkpt lat="51.172795" lon="5.150882"><ele>28.179524</ele></trkpt>
      <trkpt lat="51.172682" lon="5.150922"><ele>28.287095</ele></trkpt>
      <trkpt lat="51.170183" lon="5.150370"><ele>27.499895</ele></trkpt>
      <trkpt lat="51.168529" lon="5.150004"><ele>26.913443</ele></trkpt>
      <trkpt lat="51.162788" lon="5.148742"><ele>26.012528</ele></trkpt>
      <trkpt lat="51.161905" lon="5.148545"><ele>26.198112</ele></trkpt>
      <trkpt lat="51.156338" lon="5.147304"><ele>27.078893</ele></trkpt>
      <trkpt lat="51.156174" lon="5.147249"><ele>27.052184</ele></trkpt>
      <trkpt lat="51.156030" lon="5.147137"><ele>27.409094</ele></trkpt>
      <trkpt lat="51.155828" lon="5.146957"><ele>28.582631</ele></trkpt>
      <trkpt lat="51.155694" lon="5.146784"><ele>29.357442</ele></trkpt>
      <trkpt lat="51.155548" lon="5.146919"><ele>29.379594</ele></trkpt>
      <trkpt lat="51.155337" lon="5.147004"><ele>28.639742</ele></trkpt>
      <trkpt lat="51.154904" lon="5.146978"><ele>27.607465</ele></trkpt>
      <trkpt lat="51.154574" lon="5.146897"><ele>27.062514</ele></trkpt>
      <trkpt lat="51.152084" lon="5.146344"><ele>26.211805</ele></trkpt>
      <trkpt lat="51.151813" lon="5.146304"><ele>25.858611</ele></trkpt>
      <trkpt lat="51.150481" lon="5.146007"><ele>25.104660</ele></trkpt>
      <trkpt lat="51.147881" lon="5.145426"><ele>24.079202</ele></trkpt>
      <trkpt lat="51.141245" lon="5.143968"><ele>26.470863</ele></trkpt>
      <trkpt lat="51.140621" lon="5.143835"><ele>26.400321</ele></trkpt>
      <trkpt lat="51.139956" lon="5.143692"><ele>26.354121</ele></trkpt>
      <trkpt lat="51.139589" lon="5.143609"><ele>26.909580</ele></trkpt>
      <trkpt lat="51.139205" lon="5.143522"><ele>27.538771</ele></trkpt>
      <trkpt lat="51.139131" lon="5.143486"><ele>27.626663</ele></trkpt>
      <trkpt lat="51.139113" lon="5.143440"><ele>27.665303</ele></trkpt>
      <trkpt lat="51.138937" lon="5.143424"><ele>27.612364</ele></trkpt>
      <trkpt lat="51.138636" lon="5.143383"><ele>27.127306</ele></trkpt>
      <trkpt lat="51.138525" lon="5.143326"><ele>26.809754</ele></trkpt>
      <trkpt lat="51.138477" lon="5.143354"><ele>26.670571</ele></trkpt>
      <trkpt lat="51.129562" lon="5.141232"><ele>26.316324</ele></trkpt>
      <trkpt lat="51.128557" lon="5.141003"><ele>26.632055</ele></trkpt>
      <trkpt lat="51.128355" lon="5.140951"><ele>26.663766</ele></trkpt>
      <trkpt lat="51.128313" lon="5.140678"><ele>26.911202</ele></trkpt>
      <trkpt lat="51.128431" lon="5.140295"><ele>27.477632</ele></trkpt>
      <trkpt lat="51.128511" lon="5.140215"><ele>27.546418</ele></trkpt>
      <trkpt lat="51.128472" lon="5.140695"><ele>27.325012</ele></trkpt>
      <trkpt lat="51.128347" lon="5.142168"><ele>26.791764</ele></trkpt>
      <trkpt lat="51.128290" lon="5.142198"><ele>26.739710</ele></trkpt>
      <trkpt lat="51.128220" lon="5.142426"><ele>26.560849</ele></trkpt>
      <trkpt lat="51.128175" lon="5.142076"><ele>26.170193</ele></trkpt>
      <trkpt lat="51.128210" lon="5.142005"><ele>26.144791</ele></trkpt>
      <trkpt lat="51.128226" lon="5.141882"><ele>26.109448</ele></trkpt>
      <trkpt lat="51.128538" lon="5.141939"><ele>26.713873</ele></trkpt>
      <trkpt lat="51.128593" lon="5.141953"><ele>26.763531</ele></trkpt>
      <trkpt lat="51.128707" lon="5.141980"><ele>26.866289</ele></trkpt>
      <trkpt lat="51.129569" lon="5.142189"><ele>26.512997</ele></trkpt>
      <trkpt lat="51.131963" lon="5.142752"><ele>26.109194</ele></trkpt>
      <trkpt lat="51.134286" lon="5.143310"><ele>26.100000</ele></trkpt>
      <trkpt lat="51.137110" lon="5.143988"><ele>26.115695</ele></trkpt>
      <trkpt lat="51.137417" lon="5.144113"><ele>26.210892</ele></trkpt>
      <trkpt lat="51.138452" lon="5.144329"><ele>26.885077</ele></trkpt>
      <trkpt lat="51.138700" lon="5.144376"><ele>27.342304</ele></trkpt>
      <trkpt lat="51.138932" lon="5.144420"><ele>27.567382</ele></trkpt>
      <trkpt lat="51.139052" lon="5.144447"><ele>27.522790</ele></trkpt>
      <trkpt lat="51.139215" lon="5.144485"><ele>27.396544</ele></trkpt>
      <trkpt lat="51.139674" lon="5.144588"><ele>26.820726</ele></trkpt>
      <trkpt lat="51.140137" lon="5.144691"><ele>26.474733</ele></trkpt>
      <trkpt lat="51.141106" lon="5.144900"><ele>26.589442</ele></trkpt>
      <trkpt lat="51.141325" lon="5.144945"><ele>26.603666</ele></trkpt>
      <trkpt lat="51.153292" lon="5.147585"><ele>27.494211</ele></trkpt>
      <trkpt lat="51.154177" lon="5.147780"><ele>27.491889</ele></trkpt>
      <trkpt lat="51.155111" lon="5.147988"><ele>27.485097</ele></trkpt>
      <trkpt lat="51.155146" lon="5.147996"><ele>27.505247</ele></trkpt>
      <trkpt lat="51.155111" lon="5.147988"><ele>27.525396</ele></trkpt>
      <trkpt lat="51.155045" lon="5.148571"><ele>28.029805</ele></trkpt>
      <trkpt lat="51.154275" lon="5.149048"><ele>28.349383</ele></trkpt>
      <trkpt lat="51.154364" lon="5.150012"><ele>28.031144</ele></trkpt>
      <trkpt lat="51.154383" lon="5.150047"><ele>28.025129</ele></trkpt>
      <trkpt lat="51.154885" lon="5.149988"><ele>28.255837</ele></trkpt>
      <trkpt lat="51.154976" lon="5.150084"><ele>28.381110</ele></trkpt>
      <trkpt lat="51.156475" lon="5.149784"><ele>29.576963</ele></trkpt>
      <trkpt lat="51.156315" lon="5.149099"><ele>29.025829</ele></trkpt>
      <trkpt lat="51.156545" lon="5.148311"><ele>28.335428</ele></trkpt>
      <trkpt lat="51.157131" lon="5.148439"><ele>28.203524</ele></trkpt>
      <trkpt lat="51.160905" lon="5.149266"><ele>27.813832</ele></trkpt>
      <trkpt lat="51.163699" lon="5.149891"><ele>28.201729</ele></trkpt>
      <trkpt lat="51.166336" lon="5.150467"><ele>28.685910</ele></trkpt>
      <trkpt lat="51.168636" lon="5.150977"><ele>28.183537</ele></trkpt>
      <trkpt lat="51.168810" lon="5.151168"><ele>28.042271</ele></trkpt>
      <trkpt lat="51.169006" lon="5.151164"><ele>27.782999</ele></trkpt>
      <trkpt lat="51.171588" lon="5.151754"><ele>28.596392</ele></trkpt>
      <trkpt lat="51.172666" lon="5.151968"><ele>28.868454</ele></trkpt>
      <trkpt lat="51.173013" lon="5.152048"><ele>28.805536</ele></trkpt>
      <trkpt lat="51.173024" lon="5.151961"><ele>28.791022</ele></trkpt>
      <trkpt lat="51.174885" lon="5.152381"><ele>28.205825</ele></trkpt>
      <trkpt lat="51.175059" lon="5.152244"><ele>27.878527</ele></trkpt>
      <trkpt lat="51.175180" lon="5.152233"><ele>27.615786</ele></trkpt>
      <trkpt lat="51.175413" lon="5.152304"><ele>27.248987</ele></trkpt>
      <trkpt lat="51.175521" lon="5.152421"><ele>27.420064</ele></trkpt>
      <trkpt lat="51.175593" lon="5.152499"><ele>27.543606</ele></trkpt>
      <trkpt lat="51.176178" lon="5.152641"><ele>28.475765</ele></trkpt>
      <trkpt lat="51.177633" lon="5.152956"><ele>27.430093</ele></trkpt>
      <trkpt lat="51.179488" lon="5.153369"><ele>26.850363</ele></trkpt>
      <trkpt lat="51.180493" lon="5.153604"><ele>27.378519</ele></trkpt>
      <trkpt lat="51.182780" lon="5.154104"><ele>27.362179</ele></trkpt>
      <trkpt lat="51.182978" lon="5.154177"><ele>26.909809</ele></trkpt>
      <trkpt lat="51.183106" lon="5.154322"><ele>26.318613</ele></trkpt>
      <trkpt lat="51.183571" lon="5.155583"><ele>22.962988</ele></trkpt>
      <trkpt lat="51.183656" lon="5.155658"><ele>22.849251</ele></trkpt>
      <trkpt lat="51.184419" lon="5.155833"><ele>22.032870</ele></trkpt>
      <trkpt lat="51.184556" lon="5.155815"><ele>22.027172</ele></trkpt>
      <trkpt lat="51.185184" lon="5.154829"><ele>22.315629</ele></trkpt>
      <trkpt lat="51.185284" lon="5.154717"><ele>22.376534</ele></trkpt>
      <trkpt lat="51.185394" lon="5.154684"><ele>22.456888</ele></trkpt>
      <trkpt lat="51.189525" lon="5.155608"><ele>25.479480</ele></trkpt>
      <trkpt lat="51.190708" lon="5.155867"><ele>25.659923</ele></trkpt>
      <trkpt lat="51.193227" lon="5.156427"><ele>27.852987</ele></trkpt>
      <trkpt lat="51.193652" lon="5.156506"><ele>28.458593</ele></trkpt>
      <trkpt lat="51.195431" lon="5.156911"><ele>27.413136</ele></trkpt>
      <trkpt lat="51.195639" lon="5.156750"><ele>27.305336</ele></trkpt>
      <trkpt lat="51.195934" lon="5.156807"><ele>27.258892</ele></trkpt>
      <trkpt lat="51.196112" lon="5.157055"><ele>27.455189</ele></trkpt>
      <trkpt lat="51.196748" lon="5.157180"><ele>27.387509</ele></trkpt>
      <trkpt lat="51.197876" lon="5.157440"><ele>26.923276</ele></trkpt>
      <trkpt lat="51.201013" lon="5.158165"><ele>27.398713</ele></trkpt>
      <trkpt lat="51.204425" lon="5.158888"><ele>27.778288</ele></trkpt>
      <trkpt lat="51.204628" lon="5.158962"><ele>27.777330</ele></trkpt>
      <trkpt lat="51.204666" lon="5.158976"><ele>27.801879</ele></trkpt>
      <trkpt lat="51.205127" lon="5.159092"><ele>28.103519</ele></trkpt>
      <trkpt lat="51.205410" lon="5.159114"><ele>28.245208</ele></trkpt>
      <trkpt lat="51.207921" lon="5.159669"><ele>27.318593</ele></trkpt>
      <trkpt lat="51.209163" lon="5.159950"><ele>27.513770</ele></trkpt>
      <trkpt lat="51.209764" lon="5.160107"><ele>26.835111</ele></trkpt>
      <trkpt lat="51.209895" lon="5.160114"><ele>26.731023</ele></trkpt>
      <trkpt lat="51.214077" lon="5.161045"><ele>26.202047</ele></trkpt>
      <trkpt lat="51.217789" lon="5.161871"><ele>25.923319</ele></trkpt>
      <trkpt lat="51.218032" lon="5.161709"><ele>25.978686</ele></trkpt>
      <trkpt lat="51.218396" lon="5.161783"><ele>26.012715</ele></trkpt>
      <trkpt lat="51.218634" lon="5.162056"><ele>26.104929</ele></trkpt>
      <trkpt lat="51.219876" lon="5.162341"><ele>26.624616</ele></trkpt>
      <trkpt lat="51.219909" lon="5.162453"><ele>26.700916</ele></trkpt>
      <trkpt lat="51.220207" lon="5.162881"><ele>27.099445</ele></trkpt>
      <trkpt lat="51.220270" lon="5.163015"><ele>27.204805</ele></trkpt>
      <trkpt lat="51.220277" lon="5.163128"><ele>27.276209</ele></trkpt>
      <trkpt lat="51.219938" lon="5.163039"><ele>27.431762</ele></trkpt>
      <trkpt lat="51.219077" lon="5.163016"><ele>27.291847</ele></trkpt>
      <trkpt lat="51.218833" lon="5.162910"><ele>27.159459</ele></trkpt>
      <trkpt lat="51.218604" lon="5.162705"><ele>26.927265</ele></trkpt>
      <trkpt lat="51.218384" lon="5.162365"><ele>26.680627</ele></trkpt>
      <trkpt lat="51.218295" lon="5.162142"><ele>26.491790</ele></trkpt>
      <trkpt lat="51.218207" lon="5.161799"><ele>26.098916</ele></trkpt>
      <trkpt lat="51.218077" lon="5.161148"><ele>24.926296</ele></trkpt>
      <trkpt lat="51.218059" lon="5.161059"><ele>24.790385</ele></trkpt>
      <trkpt lat="51.217932" lon="5.160482"><ele>24.594796</ele></trkpt>
      <trkpt lat="51.217806" lon="5.160079"><ele>24.514010</ele></trkpt>
      <trkpt lat="51.217916" lon="5.160059"><ele>24.478084</ele></trkpt>
      <trkpt lat="51.218798" lon="5.160972"><ele>24.043660</ele></trkpt>
      <trkpt lat="51.219142" lon="5.161106"><ele>23.452114</ele></trkpt>
      <trkpt lat="51.221044" lon="5.161523"><ele>24.172759</ele></trkpt>
      <trkpt lat="51.221063" lon="5.161527"><ele>24.168918</ele></trkpt>
      <trkpt lat="51.221314" lon="5.161555"><ele>24.179546</ele></trkpt>
      <trkpt lat="51.223678" lon="5.162109"><ele>25.871708</ele></trkpt>
      <trkpt lat="51.228169" lon="5.163104"><ele>25.599363</ele></trkpt>
      <trkpt lat="51.230567" lon="5.163634"><ele>25.389598</ele></trkpt>
      <trkpt lat="51.232008" lon="5.163945"><ele>24.957716</ele></trkpt>
      <trkpt lat="51.232265" lon="5.163901"><ele>25.125134</ele></trkpt>
      <trkpt lat="51.232568" lon="5.163703"><ele>25.500122</ele></trkpt>
      <trkpt lat="51.233012" lon="5.163129"><ele>26.275044</ele></trkpt>
      <trkpt lat="51.233247" lon="5.162907"><ele>26.840735</ele></trkpt>
      <trkpt lat="51.233724" lon="5.162676"><ele>27.315005</ele></trkpt>
      <trkpt lat="51.233724" lon="5.162676"><ele>27.600000</ele></trkpt>
      <trkpt lat="51.233786" lon="5.162650"><ele>27.600000</ele></trkpt>
      <trkpt lat="51.233869" lon="5.162613"><ele>27.600000</ele></trkpt>
      <trkpt lat="51.233969" lon="5.162579"><ele>27.600000</ele></trkpt>
      <trkpt lat="51.233890" lon="5.162082"><ele>27.569888</ele></trkpt>
      <trkpt lat="51.233915" lon="5.161568"><ele>27.356809</ele></trkpt>
      <trkpt lat="51.231977" lon="5.150883"><ele>24.477287</ele></trkpt>
      <trkpt lat="51.231049" lon="5.145726"><ele>22.471950</ele></trkpt>
      <trkpt lat="51.230644" lon="5.143431"><ele>22.742326</ele></trkpt>
      <trkpt lat="51.230176" lon="5.140882"><ele>25.133298</ele></trkpt>
      <trkpt lat="51.229973" lon="5.140440"><ele>25.655925</ele></trkpt>
      <trkpt lat="51.229843" lon="5.139780"><ele>24.598807</ele></trkpt>
      <trkpt lat="51.229797" lon="5.139388"><ele>23.923479</ele></trkpt>
      <trkpt lat="51.229798" lon="5.138512"><ele>22.928810</ele></trkpt>
      <trkpt lat="51.229703" lon="5.138001"><ele>22.883712</ele></trkpt>
      <trkpt lat="51.228969" lon="5.134018"><ele>22.351267</ele></trkpt>
      <trkpt lat="51.228949" lon="5.133912"><ele>22.308135</ele></trkpt>
      <trkpt lat="51.228868" lon="5.133698"><ele>22.240221</ele></trkpt>
      <trkpt lat="51.228647" lon="5.132463"><ele>22.202670</ele></trkpt>
      <trkpt lat="51.228256" lon="5.130277"><ele>22.303396</ele></trkpt>
      <trkpt lat="51.227234" lon="5.124534"><ele>22.699820</ele></trkpt>
      <trkpt lat="51.226428" lon="5.119999"><ele>22.995648</ele></trkpt>
      <trkpt lat="51.226425" lon="5.119550"><ele>22.977144</ele></trkpt>
      <trkpt lat="51.226247" lon="5.118523"><ele>22.779221</ele></trkpt>
      <trkpt lat="51.226100" lon="5.117740"><ele>22.530281</ele></trkpt>
      <trkpt lat="51.225914" lon="5.117302"><ele>22.525006</ele></trkpt>
      <trkpt lat="51.225661" lon="5.115925"><ele>23.009400</ele></trkpt>
      <trkpt lat="51.225664" lon="5.115668"><ele>23.140628</ele></trkpt>
      <trkpt lat="51.225902" lon="5.115583"><ele>23.470205</ele></trkpt>
      <trkpt lat="51.226317" lon="5.115418"><ele>23.728819</ele></trkpt>
      <trkpt lat="51.226320" lon="5.115278"><ele>23.704838</ele></trkpt>
      <trkpt lat="51.225841" lon="5.115267"><ele>23.561358</ele></trkpt>
      <trkpt lat="51.224886" lon="5.115215"><ele>24.698072</ele></trkpt>
      <trkpt lat="51.222996" lon="5.115109"><ele>24.017391</ele></trkpt>
      <trkpt lat="51.222249" lon="5.115084"><ele>24.185568</ele></trkpt>
      <trkpt lat="51.222133" lon="5.115082"><ele>24.320136</ele></trkpt>
      <trkpt lat="51.221635" lon="5.115083"><ele>25.178548</ele></trkpt>
      <trkpt lat="51.221647" lon="5.115297"><ele>25.214361</ele></trkpt>
      <trkpt lat="51.222034" lon="5.117479"><ele>20.688483</ele></trkpt>
      <trkpt lat="51.222297" lon="5.118930"><ele>20.386212</ele></trkpt>
  </trkseg></trk>
</gpx>
